*******************************************************************************
JPL/HORIZONS                205 Martha (A879 TB)           2020-Jun-22 08:39:23
Rec #:     205 (+COV) Soln.date: 2020-May-20_01:00:42   # obs: 2960 (1879-2020)
 
IAU76/J2000 helio. ecliptic osc. elements (au, days, deg., period=Julian yrs):
 
  EPOCH=  2456226.5 ! 2012-Oct-26.00 (TDB)         Residual RMS= .29826
   EC= .03407192236971734  QR= 2.6829659468061     TP= 2456657.1395902685
   OM= 211.9285208076721   W=  174.7550383956652   IN= 10.68352318269212
   A= 2.777604263651013    MA= 268.3120057509897   ADIST= 2.872242580495926
   PER= 4.62928            N= .212911199           ANGMOM= .028652624
   DAN= 2.87182            DDN= 2.68334            L= 26.7739805
   B= .9710202999999999    MOID= 1.68692005        TP= 2013-Dec-30.6395902685
 
Asteroid physical parameters (km, seconds, rotational period in hours):
   GM= n.a.                RAD= 38.4915            ROTPER= 14.911
   H= 9.5                  G= .150                 B-V= .688
                           ALBEDO= .061            STYP= Ch
 
ASTEROID comments: 
1: soln ref.= JPL#41, OCC=0
2: source=ORB
*******************************************************************************
 
 
*******************************************************************************
Ephemeris / WWW_USER Mon Jun 22 08:39:23 2020 Pasadena, USA      / Horizons
*******************************************************************************
Target body name: 205 Martha (A879 TB)            {source: JPL#41}
Center body name: Solar System Barycenter (0)     {source: DE431}
Center-site name: BODY CENTER
*******************************************************************************
Start time      : A.D. 1969-Jun-28 00:00:00.0000 TDB
Stop  time      : A.D. 2071-May-04 00:00:00.0000 TDB
Step-size       : 7200 minutes
*******************************************************************************
Center geodetic : 0.00000000,0.00000000,0.0000000 {E-lon(deg),Lat(deg),Alt(km)}
Center cylindric: 0.00000000,0.00000000,0.0000000 {E-lon(deg),Dxy(km),Dz(km)}
Center radii    : (undefined)                                                  
Small perturbers: Yes                             {source: SB431-N16}
Output units    : AU-D
Output type     : GEOMETRIC cartesian states
Output format   : 2 (position and velocity)
Reference frame : Ecliptic of J2000.0
*******************************************************************************
Initial IAU76/J2000 heliocentric ecliptic osculating elements (au, days, deg.):
  EPOCH=  2456226.5 ! 2012-Oct-26.00 (TDB)         Residual RMS= .29826        
   EC= .03407192236971734  QR= 2.6829659468061     TP= 2456657.1395902685      
   OM= 211.9285208076721   W=  174.7550383956652   IN= 10.68352318269212       
  Equivalent ICRF heliocentric equatorial cartesian coordinates (au, au/d):
   X= 9.770619347522402E-01  Y=-2.547375878974933E+00  Z=-5.519879264567205E-01
  VX= 9.462509439241705E-03 VY= 3.603916254773947E-03 VZ= 1.883698899640759E-03
Asteroid physical parameters (km, seconds, rotational period in hours):        
   GM= n.a.                RAD= 38.4915            ROTPER= 14.911              
   H= 9.5                  G= .150                 B-V= .688                   
                           ALBEDO= .061            STYP= Ch                    
*******************************************************************************
            JDTDB,            Calendar Date (TDB),        delta-T,                      X,                      Y,                      Z,                     VX,                     VY,                     VZ,
******************************************************************************************************************************************************************************************************************
$$SOE
2445300.500000000, A.D. 1982-Nov-27 00:00:00.0000,      53.182995, -1.880483107686381E+00,  2.020189437102638E+00, -5.116719094404246E-01, -7.738202480637038E-03, -6.666070552344249E-03,  2.805398050952682E-04,
2445305.500000000, A.D. 1982-Dec-02 00:00:00.0000,      53.183114, -1.918856200109745E+00,  1.986523968346973E+00, -5.101836712831954E-01, -7.610647718767453E-03, -6.799698184879156E-03,  3.147278799248322E-04,
2445310.500000000, A.D. 1982-Dec-07 00:00:00.0000,      53.183240, -1.956585759265674E+00,  1.952196670738741E+00, -5.085249151125952E-01, -7.480797602552823E-03, -6.930796561473562E-03,  3.487452763920407E-04,
2445315.500000000, A.D. 1982-Dec-12 00:00:00.0000,      53.183373, -1.993660435077401E+00,  1.917220272662762E+00, -5.066965202186730E-01, -7.348702861572747E-03, -7.059333014537180E-03,  3.825816577492731E-04,
2445320.500000000, A.D. 1982-Dec-17 00:00:00.0000,      53.183512, -2.030069131872016E+00,  1.881607663230354E+00, -5.046994172360475E-01, -7.214414524212364E-03, -7.185275919969593E-03,  4.162268231040565E-04,
2445325.500000000, A.D. 1982-Dec-22 00:00:00.0000,      53.183655, -2.065801009821278E+00,  1.845371887078578E+00, -5.025345874619113E-01, -7.077983896467755E-03, -7.308594690418724E-03,  4.496707084879484E-04,
2445330.500000000, A.D. 1982-Dec-27 00:00:00.0000,      53.183798, -2.100845486277838E+00,  1.808526139204081E+00, -5.002030621689729E-01, -6.939462541303345E-03, -7.429259768196107E-03,  4.829033878138470E-04,
2445335.500000000, A.D. 1983-Jan-01 00:00:00.0000,      53.183942, -2.135192237009597E+00,  1.771083759833124E+00, -4.977059219138677E-01, -6.798902258549812E-03, -7.547242617891315E-03,  5.159150737339874E-04,
2445340.500000000, A.D. 1983-Jan-06 00:00:00.0000,      53.184088, -2.168831197334943E+00,  1.733058229329175E+00, -4.950442958415076E-01, -6.656355065370181E-03, -7.662515718743370E-03,  5.486961184024867E-04,
2445345.500000000, A.D. 1983-Jan-11 00:00:00.0000,      53.184234, -2.201752563161981E+00,  1.694463163139200E+00, -4.922193609859321E-01, -6.511873177415489E-03, -7.775052556776187E-03,  5.812370141019761E-04,
2445350.500000000, A.D. 1983-Jan-16 00:00:00.0000,      53.184379, -2.233946791935737E+00,  1.655312306780253E+00, -4.892323415686270E-01, -6.365508990885223E-03, -7.884827616488000E-03,  6.135283936044577E-04,
2445355.500000000, A.D. 1983-Jan-21 00:00:00.0000,      53.184520, -2.265404603497472E+00,  1.615619530869414E+00, -4.860845082957410E-01, -6.217315065199383E-03, -7.991816371808359E-03,  6.455610302870328E-04,
2445360.500000000, A.D. 1983-Jan-26 00:00:00.0000,      53.184656, -2.296116980857402E+00,  1.575398826200209E+00, -4.827771776546639E-01, -6.067344105592663E-03, -8.095995276666766E-03,  6.773258383345263E-04,
2445365.500000000, A.D. 1983-Jan-31 00:00:00.0000,      53.184786, -2.326075170880019E+00,  1.534664298865626E+00, -4.793117112089105E-01, -5.915648945676540E-03, -8.197341755864378E-03,  7.088138731972089E-04,
2445370.500000000, A.D. 1983-Feb-05 00:00:00.0000,      53.184911, -2.355270684883759E+00,  1.493430165425980E+00, -4.756895148906507E-01, -5.762282530704962E-03, -8.295834196175125E-03,  7.400163320147689E-04,
2445375.500000000, A.D. 1983-Feb-10 00:00:00.0000,      53.185030, -2.383695299159189E+00,  1.451710748121783E+00, -4.719120382916689E-01, -5.607297901683064E-03, -8.391451937185518E-03,  7.709245538212881E-04,
2445380.500000000, A.D. 1983-Feb-15 00:00:00.0000,      53.185142, -2.411341055409171E+00,  1.409520470133321E+00, -4.679807739536574E-01, -5.450748179986412E-03, -8.484175261800923E-03,  8.015300196312739E-04,
2445385.500000000, A.D. 1983-Feb-20 00:00:00.0000,      53.185245, -2.438200261112941E+00,  1.366873850888090E+00, -4.638972566581201E-01, -5.292686552308266E-03, -8.573985386630626E-03,  8.318243525216621E-04,
2445390.500000000, A.D. 1983-Feb-25 00:00:00.0000,      53.185336, -2.464265489815793E+00,  1.323785501416227E+00, -4.596630627158118E-01, -5.133166255963078E-03, -8.660864452422408E-03,  8.617993177315846E-04,
2445395.500000000, A.D. 1983-Mar-02 00:00:00.0000,      53.185417, -2.489529581346368E+00,  1.280270119753508E+00, -4.552798092557021E-01, -4.972240564648165E-03, -8.744795514606885E-03,  8.914468227460893E-04,
2445400.500000000, A.D. 1983-Mar-07 00:00:00.0000,      53.185487, -2.513985641964105E+00,  1.236342486391349E+00, -4.507491535136477E-01, -4.809962774749232E-03, -8.825762533945073E-03,  9.207589173230583E-04,
2445405.500000000, A.D. 1983-Mar-12 00:00:00.0000,      53.185548, -2.537627044439704E+00,  1.192017459773399E+00, -4.460727921211574E-01, -4.646386192258759E-03, -8.903750367236573E-03,  9.497277934228865E-04,
2445410.500000000, A.D. 1983-Mar-17 00:00:00.0000,      53.185598, -2.560447428071773E+00,  1.147309971838543E+00, -4.412524603947923E-01, -4.481564120325369E-03, -8.978744758040422E-03,  9.783457850227413E-04,
2445415.500000000, A.D. 1983-Mar-22 00:00:00.0000,      53.185636, -2.582440698642793E+00,  1.102235023610362E+00, -4.362899316268053E-01, -4.315549847427844E-03, -9.050732327360117E-03,  1.006605367807404E-03,
2445420.500000000, A.D. 1983-Mar-27 00:00:00.0000,      53.185659, -2.603601028317424E+00,  1.056807680833326E+00, -4.311870163776116E-01, -4.148396636130403E-03, -9.119700564270954E-03,  1.034499158748902E-03,
2445425.500000000, A.D. 1983-Apr-01 00:00:00.0000,      53.185670, -2.623922855485910E+00,  1.011043069655971E+00, -4.259455617705926E-01, -3.980157712355106E-03, -9.185637816498528E-03,  1.062019915598350E-03,
2445430.500000000, A.D. 1983-Apr-06 00:00:00.0000,      53.185669, -2.643400884555043E+00,  9.649563723611972E-01, -4.205674507896103E-01, -3.810886255131184E-03, -9.248533281009066E-03,  1.089160536310474E-03,
2445435.500000000, A.D. 1983-Apr-11 00:00:00.0000,      53.185657, -2.662030085689225E+00,  9.185628231434403E-01, -4.150546015796131E-01, -3.640635386927338E-03, -9.308376994670365E-03,  1.115914058370087E-03,
